{"type": "FeatureCollection", "features": [{"type": "Feature", "properties": {"code": "AG"}, "geometry": {"type": "Polygon", "coordinates": [[[7.61, 46.99], [8.71, 46.99], [8.71, 47.79], [7.61, 47.79], [7.61, 46.99]]]}}, {"type": "Feature", "properties": {"code": "AI"}, "geometry": {"type": "Polygon", "coordinates": [[[9.235, 47.145], [9.585, 47.145], [9.585, 47.495], [9.235, 47.495], [9.235, 47.145]]]}}, {"type": "Feature", "properties": {"code": "AR"}, "geometry": {"type": "Polygon", "coordinates": [[[9.004999999999999, 47.155], [9.555, 47.155], [9.555, 47.605000000000004], [9.004999999999999, 47.605000000000004], [9.004999999999999, 47.155]]]}}, {"type": "Feature", "properties": {"code": "BE"}, "geometry": {"type": "Polygon", "coordinates": [[[6.6000000000000005, 46.150000000000006], [8.3, 46.150000000000006], [8.3, 47.75], [6.6000000000000005, 47.75], [6.6000000000000005, 46.150000000000006]]]}}, {"type": "Feature", "properties": {"code": "BL"}, "geometry": {"type": "Polygon", "coordinates": [[[7.375, 47.25], [7.824999999999999, 47.25], [7.824999999999999, 47.650000000000006], [7.375, 47.650000000000006], [7.375, 47.25]]]}}, {"type": "Feature", "properties": {"code": "BS"}, "geometry": {"type": "Polygon", "coordinates": [[[7.45, 47.42], [7.7299999999999995, 47.42], [7.7299999999999995, 47.7], [7.45, 47.7], [7.45, 47.42]]]}}, {"type": "Feature", "properties": {"code": "FR"}, "geometry": {"type": "Polygon", "coordinates": [[[6.6000000000000005, 46.349999999999994], [7.7, 46.349999999999994], [7.7, 47.25], [6.6000000000000005, 47.25], [6.6000000000000005, 46.349999999999994]]]}}, {"type": "Feature", "properties": {"code": "GE"}, "geometry": {"type": "Polygon", "coordinates": [[[5.915, 46.0], [6.364999999999999, 46.0], [6.364999999999999, 46.400000000000006], [5.915, 46.400000000000006], [5.915, 46.0]]]}}, {"type": "Feature", "properties": {"code": "GL"}, "geometry": {"type": "Polygon", "coordinates": [[[8.695, 46.714999999999996], [9.445, 46.714999999999996], [9.445, 47.365], [8.695, 47.365], [8.695, 46.714999999999996]]]}}, {"type": "Feature", "properties": {"code": "GR"}, "geometry": {"type": "Polygon", "coordinates": [[[8.52, 45.8], [10.5, 45.8], [10.5, 47.559999999999995], [8.52, 47.559999999999995], [8.52, 45.8]]]}}, {"type": "Feature", "properties": {"code": "JU"}, "geometry": {"type": "Polygon", "coordinates": [[[6.7250000000000005, 47.0], [7.575, 47.0], [7.575, 47.7], [6.7250000000000005, 47.7], [6.7250000000000005, 47.0]]]}}, {"type": "Feature", "properties": {"code": "LU"}, "geometry": {"type": "Polygon", "coordinates": [[[7.744999999999999, 46.599999999999994], [8.795, 46.599999999999994], [8.795, 47.5], [7.744999999999999, 47.5], [7.744999999999999, 46.599999999999994]]]}}, {"type": "Feature", "properties": {"code": "NE"}, "geometry": {"type": "Polygon", "coordinates": [[[6.505, 46.615], [7.3549999999999995, 46.615], [7.3549999999999995, 47.365], [6.505, 47.365], [6.505, 46.615]]]}}, {"type": "Feature", "properties": {"code": "NW"}, "geometry": {"type": "Polygon", "coordinates": [[[8.16, 46.725], [8.66, 46.725], [8.66, 47.175000000000004], [8.16, 47.175000000000004], [8.16, 46.725]]]}}, {"type": "Feature", "properties": {"code": "OW"}, "geometry": {"type": "Polygon", "coordinates": [[[7.975, 46.65], [8.525, 46.65], [8.525, 47.15], [7.975, 47.15], [7.975, 46.65]]]}}, {"type": "Feature", "properties": {"code": "SG"}, "geometry": {"type": "Polygon", "coordinates": [[[8.569999999999999, 46.82], [10.17, 46.82], [10.17, 47.8], [8.569999999999999, 47.8], [8.569999999999999, 46.82]]]}}, {"type": "Feature", "properties": {"code": "SH"}, "geometry": {"type": "Polygon", "coordinates": [[[8.280000000000001, 47.425000000000004], [8.98, 47.425000000000004], [8.98, 47.8], [8.280000000000001, 47.8], [8.280000000000001, 47.425000000000004]]]}}, {"type": "Feature", "properties": {"code": "SO"}, "geometry": {"type": "Polygon", "coordinates": [[[7.03, 46.785000000000004], [8.030000000000001, 46.785000000000004], [8.030000000000001, 47.635], [7.03, 47.635], [7.03, 46.785000000000004]]]}}, {"type": "Feature", "properties": {"code": "SZ"}, "geometry": {"type": "Polygon", "coordinates": [[[8.305, 46.699999999999996], [9.155000000000001, 46.699999999999996], [9.155000000000001, 47.4], [8.305, 47.4], [8.305, 46.699999999999996]]]}}, {"type": "Feature", "properties": {"code": "TG"}, "geometry": {"type": "Polygon", "coordinates": [[[8.3, 47.129999999999995], [9.5, 47.129999999999995], [9.5, 47.8], [8.3, 47.8], [8.3, 47.129999999999995]]]}}, {"type": "Feature", "properties": {"code": "TI"}, "geometry": {"type": "Polygon", "coordinates": [[[8.31, 45.8], [9.610000000000001, 45.8], [9.610000000000001, 46.76], [8.31, 46.76], [8.31, 45.8]]]}}, {"type": "Feature", "properties": {"code": "UR"}, "geometry": {"type": "Polygon", "coordinates": [[[8.255, 46.220000000000006], [9.005, 46.220000000000006], [9.005, 47.32], [8.255, 47.32], [8.255, 46.220000000000006]]]}}, {"type": "Feature", "properties": {"code": "VD"}, "geometry": {"type": "Polygon", "coordinates": [[[5.989999999999999, 46.019999999999996], [7.29, 46.019999999999996], [7.29, 47.22], [5.989999999999999, 47.22], [5.989999999999999, 46.019999999999996]]]}}, {"type": "Feature", "properties": {"code": "VS"}, "geometry": {"type": "Polygon", "coordinates": [[[6.8100000000000005, 45.8], [7.91, 45.8], [7.91, 47.04], [6.8100000000000005, 47.04], [6.8100000000000005, 45.8]]]}}, {"type": "Feature", "properties": {"code": "ZG"}, "geometry": {"type": "Polygon", "coordinates": [[[8.245, 46.934999999999995], [8.795, 46.934999999999995], [8.795, 47.385], [8.245, 47.385], [8.245, 46.934999999999995]]]}}, {"type": "Feature", "properties": {"code": "ZH"}, "geometry": {"type": "Polygon", "coordinates": [[[7.989999999999999, 46.919999999999995], [9.09, 46.919999999999995], [9.09, 47.8], [7.989999999999999, 47.8], [7.989999999999999, 46.919999999999995]]]}}]}